{
    "links": {
        "self": "http://www.neowsapp.com/rest/v1/neo/3755398?api_key=iIulBulltgU6a56xZRHN4H3l9WmuAYTsLGpBGhQ2"
    },
    "id": "3755398",
    "neo_reference_id": "3755398",
    "name": "(2016 NS38)",
    "designation": "2016 NS38",
    "nasa_jpl_url": "http://ssd.jpl.nasa.gov/sbdb.cgi?sstr=3755398",
    "absolute_magnitude_h": 24.6,
    "estimated_diameter": {
        "kilometers": {
            "estimated_diameter_min": 0.0319561887,
            "estimated_diameter_max": 0.0714562102
        },
        "meters": {
            "estimated_diameter_min": 31.9561886721,
            "estimated_diameter_max": 71.4562101727
        },
        "miles": {
            "estimated_diameter_min": 0.0198566489,
            "estimated_diameter_max": 0.0444008168
        },
        "feet": {
            "estimated_diameter_min": 104.8431420431,
            "estimated_diameter_max": 234.436392583
        }
    },
    "is_potentially_hazardous_asteroid": false,
    "close_approach_data": [
        {
            "close_approach_date": "2016-07-12",
            "close_approach_date_full": "2016-Jul-12 21:56",
            "epoch_date_close_approach": 1468360560000,
            "relative_velocity": {
                "kilometers_per_second": "7.4346344056",
                "kilometers_per_hour": "26764.6838602442",
                "miles_per_hour": "16630.5337019389"
            },
            "miss_distance": {
                "astronomical": "0.065188193",
                "lunar": "25.358207077",
                "kilometers": "9752014.82194891",
                "miles": "6059621.021998558"
            },
            "orbiting_body": "Earth"
        }
    ],
    "orbital_data": {
        "orbit_id": "4",
        "orbit_determination_date": "2018-02-10 07:08:01",
        "first_observation_date": "2016-07-09",
        "last_observation_date": "2016-08-01",
        "data_arc_in_days": 23,
        "observations_used": 37,
        "orbit_uncertainty": "7",
        "minimum_orbit_intersection": ".0485736",
        "jupiter_tisserand_invariant": "3.539",
        "epoch_osculation": "2459000.5",
        "eccentricity": ".5022103515919689",
        "semi_major_axis": "2.135393107669855",
        "inclination": "5.747600177965149",
        "ascending_node_longitude": "116.5336474662549",
        "orbital_period": "1139.764646568775",
        "perihelion_distance": "1.06297658427991",
        "perihelion_argument": "187.2548182002289",
        "aphelion_distance": "3.2078096310598",
        "perihelion_time": "2458731.898887099003",
        "mean_anomaly": "84.83891910093935",
        "mean_motion": ".3158546820027875",
        "equinox": "J2000",
        "orbit_class": {
            "orbit_class_type": "AMO",
            "orbit_class_description": "Near-Earth asteroid orbits similar to that of 1221 Amor",
            "orbit_class_range": "1.017 AU < q (perihelion) < 1.3 AU"
        }
    },
    "is_sentry_object": false
}